{
  "type": "FeatureCollection",
  "name": "renon_fields",
  "crs": {
    "type": "name",
    "properties": { "name": "urn:ogc:def:crs:EPSG::32632" }
  },
  "features": [
    {
      "type": "Feature",
      "properties": { "id": 0 },
      "geometry": {
        "type": "MultiPolygon",
        "coordinates": [
          [
            [
              [686457.368547682301141, 5155940.688589056022465],
              [686457.511830274830572, 5155940.54530646186322],
              [686504.938368428731337, 5155952.724326835013926],
              [686534.168017321033403, 5155955.876543872989714],
              [686571.421491399523802, 5155948.712414241395891],
              [686558.812623249716125, 5155902.002289051190019],
              [686526.144192134961486, 5155896.270985347218812],
              [686475.422154351137578, 5155856.151859415695071],
              [686444.75967953260988, 5155906.300766829401255],
              [686457.368547682301141, 5155940.688589056022465]
            ]
          ]
        ]
      }
    },
    {
      "type": "Feature",
      "properties": { "id": 1 },
      "geometry": {
        "type": "MultiPolygon",
        "coordinates": [
          [
            [
              [686584.89005510462448, 5155952.509402942843735],
              [686596.925792883848771, 5155974.861487389542162],
              [686659.970133632305078, 5156014.980613321065903],
              [686739.06212475290522, 5155950.216881460510194],
              [686666.274567706976086, 5155895.196365899406374],
              [686584.89005510462448, 5155952.509402942843735]
            ]
          ]
        ]
      }
    },
    {
      "type": "Feature",
      "properties": { "id": 2 },
      "geometry": {
        "type": "MultiPolygon",
        "coordinates": [
          [
            [
              [686195.161403206177056, 5155770.253945142962039],
              [686196.307663947110996, 5155770.827075513079762],
              [686302.909912848728709, 5155842.468371817842126],
              [686419.82850841851905, 5155867.686108115129173],
              [686446.192505458602682, 5155900.354539233259857],
              [686469.690850646351464, 5155856.79663108009845],
              [686451.92380916303955, 5155836.163937743753195],
              [686448.485026940470561, 5155813.81185329798609],
              [686404.353988416492939, 5155793.752290329895914],
              [686404.927118786959909, 5155765.668902180157602],
              [686220.952269876026548, 5155710.648386618122458],
              [686195.161403206177056, 5155770.253945142962039]
            ]
          ]
        ]
      }
    }
  ]
}
